[{"OBJECT_NAME":"STARLINK-35431","OBJECT_ID":"2025-232AB","EPOCH":"2026-03-09T08:48:24.327936","MEAN_MOTION":15.30199693,"ECCENTRICITY":0.00012547,"INCLINATION":53.1592,"RA_OF_ASC_NODE":105.5703,"ARG_OF_PERICENTER":111.6918,"MEAN_ANOMALY":248.4216,"EPHEMERIS_TYPE":0,"CLASSIFICATION_TYPE":"U","NORAD_CAT_ID":66030,"ELEMENT_SET_NO":999,"REV_AT_EPOCH":2338,"BSTAR":0.0004342078,"MEAN_MOTION_DOT":0.00012522,"MEAN_MOTION_DDOT":0},{"OBJECT_NAME":"SSA","OBJECT_ID":"1983-008E","EPOCH":"2026-03-09T21:11:47.750784","MEAN_MOTION":13.77143682,"ECCENTRICITY":0.07220619,"INCLINATION":63.3104,"RA_OF_ASC_NODE":301.3649,"ARG_OF_PERICENTER":133.1632,"MEAN_ANOMALY":233.2137,"EPHEMERIS_TYPE":0,"CLASSIFICATION_TYPE":"U","NORAD_CAT_ID":13844,"ELEMENT_SET_NO":999,"REV_AT_EPOCH":34517,"BSTAR":0.00050457017,"MEAN_MOTION_DOT":3.706e-5,"MEAN_MOTION_DDOT":0}]
